12 24
Teledesic 194
1 00195U 00000ABC 00001.00000000  .00000000  00000-0  00000+0 0    08
2 00195  90.0000 240.0000 0000001   0.0000  30.0000 14.58000000    04
Teledesic 195
1 00196U 00000ABC 00001.00000000  .00000000  00000-0  00000+0 0    09
2 00196  90.0000 240.0000 0000001   0.0000  45.0000 14.58000000    01
Teledesic 196
1 00197U 00000ABC 00001.00000000  .00000000  00000-0  00000+0 0    00
2 00197  90.0000 240.0000 0000001   0.0000  60.0000 14.58000000    09
Teledesic 197
1 00198U 00000ABC 00001.00000000  .00000000  00000-0  00000+0 0    01
2 00198  90.0000 240.0000 0000001   0.0000  75.0000 14.58000000    06
Teledesic 198
1 00199U 00000ABC 00001.00000000  .00000000  00000-0  00000+0 0    02
2 00199  90.0000 240.0000 0000001   0.0000  90.0000 14.58000000    04
Teledesic 199
1 00200U 00000ABC 00001.00000000  .00000000  00000-0  00000+0 0    05
2 00200  90.0000 240.0000 0000001   0.0000 105.0000 14.58000000    04
Teledesic 200
1 00201U 00000ABC 00001.00000000  .00000000  00000-0  00000+0 0    06
2 00201  90.0000 240.0000 0000001   0.0000 120.0000 14.58000000    02
Teledesic 201
1 00202U 00000ABC 00001.00000000  .00000000  00000-0  00000+0 0    07
2 00202  90.0000 240.0000 0000001   0.0000 135.0000 14.58000000    09
Teledesic 202
1 00203U 00000ABC 00001.00000000  .00000000  00000-0  00000+0 0    08
2 00203  90.0000 240.0000 0000001   0.0000 150.0000 14.58000000    07
Teledesic 203
1 00204U 00000ABC 00001.00000000  .00000000  00000-0  00000+0 0    09
2 00204  90.0000 240.0000 0000001   0.0000 165.0000 14.58000000    04
Teledesic 204
1 00205U 00000ABC 00001.00000000  .00000000  00000-0  00000+0 0    00
2 00205  90.0000 240.0000 0000001   0.0000 180.0000 14.58000000    02
Teledesic 205
1 00206U 00000ABC 00001.00000000  .00000000  00000-0  00000+0 0    01
2 00206  90.0000 240.0000 0000001   0.0000 195.0000 14.58000000    09
Teledesic 206
1 00207U 00000ABC 00001.00000000  .00000000  00000-0  00000+0 0    02
2 00207  90.0000 240.0000 0000001   0.0000 210.0000 14.58000000    08
Teledesic 207
1 00208U 00000ABC 00001.00000000  .00000000  00000-0  00000+0 0    03
2 00208  90.0000 240.0000 0000001   0.0000 225.0000 14.58000000    05
Teledesic 208
1 00209U 00000ABC 00001.00000000  .00000000  00000-0  00000+0 0    04
2 00209  90.0000 240.0000 0000001   0.0000 240.0000 14.58000000    03
Teledesic 209
1 00210U 00000ABC 00001.00000000  .00000000  00000-0  00000+0 0    06
2 00210  90.0000 240.0000 0000001   0.0000 255.0000 14.58000000    01
Teledesic 210
1 00211U 00000ABC 00001.00000000  .00000000  00000-0  00000+0 0    07
2 00211  90.0000 240.0000 0000001   0.0000 270.0000 14.58000000    09
Teledesic 211
1 00212U 00000ABC 00001.00000000  .00000000  00000-0  00000+0 0    08
2 00212  90.0000 240.0000 0000001   0.0000 285.0000 14.58000000    06
Teledesic 212
1 00213U 00000ABC 00001.00000000  .00000000  00000-0  00000+0 0    09
2 00213  90.0000 240.0000 0000001   0.0000 300.0000 14.58000000    05
Teledesic 213
1 00214U 00000ABC 00001.00000000  .00000000  00000-0  00000+0 0    00
2 00214  90.0000 240.0000 0000001   0.0000 315.0000 14.58000000    02
Teledesic 214
1 00215U 00000ABC 00001.00000000  .00000000  00000-0  00000+0 0    01
2 00215  90.0000 240.0000 0000001   0.0000 330.0000 14.58000000    00
Teledesic 215
1 00216U 00000ABC 00001.00000000  .00000000  00000-0  00000+0 0    02
2 00216  90.0000 240.0000 0000001   0.0000 345.0000 14.58000000    07
Teledesic 216
1 00217U 00000ABC 00001.00000000  .00000000  00000-0  00000+0 0    03
2 00217  90.0000 270.0000 0000001   0.0000   7.5000 14.58000000    01
Teledesic 217
1 00218U 00000ABC 00001.00000000  .00000000  00000-0  00000+0 0    04
2 00218  90.0000 270.0000 0000001   0.0000  22.5000 14.58000000    09
Teledesic 218
1 00219U 00000ABC 00001.00000000  .00000000  00000-0  00000+0 0    05
2 00219  90.0000 270.0000 0000001   0.0000  37.5000 14.58000000    06
Teledesic 219
1 00220U 00000ABC 00001.00000000  .00000000  00000-0  00000+0 0    07
2 00220  90.0000 270.0000 0000001   0.0000  52.5000 14.58000000    05
Teledesic 220
1 00221U 00000ABC 00001.00000000  .00000000  00000-0  00000+0 0    08
2 00221  90.0000 270.0000 0000001   0.0000  67.5000 14.58000000    02
Teledesic 221
1 00222U 00000ABC 00001.00000000  .00000000  00000-0  00000+0 0    09
2 00222  90.0000 270.0000 0000001   0.0000  82.5000 14.58000000    00
Teledesic 222
1 00223U 00000ABC 00001.00000000  .00000000  00000-0  00000+0 0    00
2 00223  90.0000 270.0000 0000001   0.0000  97.5000 14.58000000    07
Teledesic 223
1 00224U 00000ABC 00001.00000000  .00000000  00000-0  00000+0 0    01
2 00224  90.0000 270.0000 0000001   0.0000 112.5000 14.58000000    06
Teledesic 224
1 00225U 00000ABC 00001.00000000  .00000000  00000-0  00000+0 0    02
2 00225  90.0000 270.0000 0000001   0.0000 127.5000 14.58000000    03
Teledesic 225
1 00226U 00000ABC 00001.00000000  .00000000  00000-0  00000+0 0    03
2 00226  90.0000 270.0000 0000001   0.0000 142.5000 14.58000000    01
Teledesic 226
1 00227U 00000ABC 00001.00000000  .00000000  00000-0  00000+0 0    04
2 00227  90.0000 270.0000 0000001   0.0000 157.5000 14.58000000    08
Teledesic 227
1 00228U 00000ABC 00001.00000000  .00000000  00000-0  00000+0 0    05
2 00228  90.0000 270.0000 0000001   0.0000 172.5000 14.58000000    06
Teledesic 228
1 00229U 00000ABC 00001.00000000  .00000000  00000-0  00000+0 0    06
2 00229  90.0000 270.0000 0000001   0.0000 187.5000 14.58000000    03
Teledesic 229
1 00230U 00000ABC 00001.00000000  .00000000  00000-0  00000+0 0    08
2 00230  90.0000 270.0000 0000001   0.0000 202.5000 14.58000000    03
Teledesic 230
1 00231U 00000ABC 00001.00000000  .00000000  00000-0  00000+0 0    09
2 00231  90.0000 270.0000 0000001   0.0000 217.5000 14.58000000    00
Teledesic 231
1 00232U 00000ABC 00001.00000000  .00000000  00000-0  00000+0 0    00
2 00232  90.0000 270.0000 0000001   0.0000 232.5000 14.58000000    08
Teledesic 232
1 00233U 00000ABC 00001.00000000  .00000000  00000-0  00000+0 0    01
2 00233  90.0000 270.0000 0000001   0.0000 247.5000 14.58000000    05
Teledesic 233
1 00234U 00000ABC 00001.00000000  .00000000  00000-0  00000+0 0    02
2 00234  90.0000 270.0000 0000001   0.0000 262.5000 14.58000000    03
Teledesic 234
1 00235U 00000ABC 00001.00000000  .00000000  00000-0  00000+0 0    03
2 00235  90.0000 270.0000 0000001   0.0000 277.5000 14.58000000    00
Teledesic 235
1 00236U 00000ABC 00001.00000000  .00000000  00000-0  00000+0 0    04
2 00236  90.0000 270.0000 0000001   0.0000 292.5000 14.58000000    08
Teledesic 236
1 00237U 00000ABC 00001.00000000  .00000000  00000-0  00000+0 0    05
2 00237  90.0000 270.0000 0000001   0.0000 307.5000 14.58000000    06
Teledesic 237
1 00238U 00000ABC 00001.00000000  .00000000  00000-0  00000+0 0    06
2 00238  90.0000 270.0000 0000001   0.0000 322.5000 14.58000000    04
Teledesic 238
1 00239U 00000ABC 00001.00000000  .00000000  00000-0  00000+0 0    07
2 00239  90.0000 270.0000 0000001   0.0000 337.5000 14.58000000    01
Teledesic 239
1 00240U 00000ABC 00001.00000000  .00000000  00000-0  00000+0 0    09
2 00240  90.0000 270.0000 0000001   0.0000 352.5000 14.58000000    00
Teledesic 240
1 00241U 00000ABC 00001.00000000  .00000000  00000-0  00000+0 0    00
2 00241  90.0000 300.0000 0000001   0.0000   0.0000 14.58000000    00
Teledesic 241
1 00242U 00000ABC 00001.00000000  .00000000  00000-0  00000+0 0    01
2 00242  90.0000 300.0000 0000001   0.0000  15.0000 14.58000000    07
Teledesic 242
1 00243U 00000ABC 00001.00000000  .00000000  00000-0  00000+0 0    02
2 00243  90.0000 300.0000 0000001   0.0000  30.0000 14.58000000    05
Teledesic 243
1 00244U 00000ABC 00001.00000000  .00000000  00000-0  00000+0 0    03
2 00244  90.0000 300.0000 0000001   0.0000  45.0000 14.58000000    02
Teledesic 244
1 00245U 00000ABC 00001.00000000  .00000000  00000-0  00000+0 0    04
2 00245  90.0000 300.0000 0000001   0.0000  60.0000 14.58000000    00
Teledesic 245
1 00246U 00000ABC 00001.00000000  .00000000  00000-0  00000+0 0    05
2 00246  90.0000 300.0000 0000001   0.0000  75.0000 14.58000000    07
Teledesic 246
1 00247U 00000ABC 00001.00000000  .00000000  00000-0  00000+0 0    06
2 00247  90.0000 300.0000 0000001   0.0000  90.0000 14.58000000    05
Teledesic 247
1 00248U 00000ABC 00001.00000000  .00000000  00000-0  00000+0 0    07
2 00248  90.0000 300.0000 0000001   0.0000 105.0000 14.58000000    03
Teledesic 248
1 00249U 00000ABC 00001.00000000  .00000000  00000-0  00000+0 0    08
2 00249  90.0000 300.0000 0000001   0.0000 120.0000 14.58000000    01
Teledesic 249
1 00250U 00000ABC 00001.00000000  .00000000  00000-0  00000+0 0    00
2 00250  90.0000 300.0000 0000001   0.0000 135.0000 14.58000000    09
Teledesic 250
1 00251U 00000ABC 00001.00000000  .00000000  00000-0  00000+0 0    01
2 00251  90.0000 300.0000 0000001   0.0000 150.0000 14.58000000    07
Teledesic 251
1 00252U 00000ABC 00001.00000000  .00000000  00000-0  00000+0 0    02
2 00252  90.0000 300.0000 0000001   0.0000 165.0000 14.58000000    04
Teledesic 252
1 00253U 00000ABC 00001.00000000  .00000000  00000-0  00000+0 0    03
2 00253  90.0000 300.0000 0000001   0.0000 180.0000 14.58000000    02
Teledesic 253
1 00254U 00000ABC 00001.00000000  .00000000  00000-0  00000+0 0    04
2 00254  90.0000 300.0000 0000001   0.0000 195.0000 14.58000000    09
Teledesic 254
1 00255U 00000ABC 00001.00000000  .00000000  00000-0  00000+0 0    05
2 00255  90.0000 300.0000 0000001   0.0000 210.0000 14.58000000    08
Teledesic 255
1 00256U 00000ABC 00001.00000000  .00000000  00000-0  00000+0 0    06
2 00256  90.0000 300.0000 0000001   0.0000 225.0000 14.58000000    05
Teledesic 256
1 00257U 00000ABC 00001.00000000  .00000000  00000-0  00000+0 0    07
2 00257  90.0000 300.0000 0000001   0.0000 240.0000 14.58000000    03
Teledesic 257
1 00258U 00000ABC 00001.00000000  .00000000  00000-0  00000+0 0    08
2 00258  90.0000 300.0000 0000001   0.0000 255.0000 14.58000000    00
